AL MUNTHER              
1 63240U 25052AG  26068.64540749  .00017933  00000+0  65015-3 0  9992
2 63240  97.4001 323.9152 0008027 130.7043 229.4895 15.28381521 54798
STARLINK-33837          
1 63501U 25071J   26068.47868035  .00020767  00000+0  71147-3 0  9997
2 63501  53.1575 141.1847 0001329  72.9359 287.1787 15.30193046 52671
